{
    "links": {
        "self": "http://www.neowsapp.com/rest/v1/neo/3759275?api_key=iIulBulltgU6a56xZRHN4H3l9WmuAYTsLGpBGhQ2"
    },
    "id": "3759275",
    "neo_reference_id": "3759275",
    "name": "(2016 RQ19)",
    "designation": "2016 RQ19",
    "nasa_jpl_url": "http://ssd.jpl.nasa.gov/sbdb.cgi?sstr=3759275",
    "absolute_magnitude_h": 23.9,
    "estimated_diameter": {
        "kilometers": {
            "estimated_diameter_min": 0.04411182,
            "estimated_diameter_max": 0.0986370281
        },
        "meters": {
            "estimated_diameter_min": 44.1118199997,
            "estimated_diameter_max": 98.6370281305
        },
        "miles": {
            "estimated_diameter_min": 0.0274098057,
            "estimated_diameter_max": 0.0612901888
        },
        "feet": {
            "estimated_diameter_min": 144.7238235278,
            "estimated_diameter_max": 323.6123073718
        }
    },
    "is_potentially_hazardous_asteroid": false,
    "close_approach_data": [
        {
            "close_approach_date": "2016-09-05",
            "close_approach_date_full": "2016-Sep-05 07:20",
            "epoch_date_close_approach": 1473060000000,
            "relative_velocity": {
                "kilometers_per_second": "5.3446619495",
                "kilometers_per_hour": "19240.7830183255",
                "miles_per_hour": "11955.4743149145"
            },
            "miss_distance": {
                "astronomical": "0.1425919235",
                "lunar": "55.4682582415",
                "kilometers": "21331448.034802945",
                "miles": "13254747.178032841"
            },
            "orbiting_body": "Earth"
        }
    ],
    "orbital_data": {
        "orbit_id": "5",
        "orbit_determination_date": "2017-04-06 08:24:03",
        "first_observation_date": "2016-09-06",
        "last_observation_date": "2016-10-09",
        "data_arc_in_days": 33,
        "observations_used": 40,
        "orbit_uncertainty": "7",
        "minimum_orbit_intersection": ".133705",
        "jupiter_tisserand_invariant": "3.352",
        "epoch_osculation": "2459000.5",
        "eccentricity": ".5212151887255131",
        "semi_major_axis": "2.360566335545216",
        "inclination": "3.333477061384359",
        "ascending_node_longitude": "276.5711106049257",
        "orbital_period": "1324.715874977231",
        "perihelion_distance": "1.130203307464923",
        "perihelion_argument": "64.86432667033826",
        "aphelion_distance": "3.590929363625509",
        "perihelion_time": "2458961.863123983814",
        "mean_anomaly": "10.49981783155272",
        "mean_motion": ".2717563870110545",
        "equinox": "J2000",
        "orbit_class": {
            "orbit_class_type": "AMO",
            "orbit_class_description": "Near-Earth asteroid orbits similar to that of 1221 Amor",
            "orbit_class_range": "1.017 AU < q (perihelion) < 1.3 AU"
        }
    },
    "is_sentry_object": false
}